[{"OBJECT_NAME":"ICEYE-X11","OBJECT_ID":"2021-059AR","EPOCH":"2026-03-09T23:58:26.261184","MEAN_MOTION":15.74026715,"ECCENTRICITY":0.00046944,"INCLINATION":97.6457,"RA_OF_ASC_NODE":256.9655,"ARG_OF_PERICENTER":333.4383,"MEAN_ANOMALY":26.664,"EPHEMERIS_TYPE":0,"CLASSIFICATION_TYPE":"U","NORAD_CAT_ID":48918,"ELEMENT_SET_NO":999,"REV_AT_EPOCH":26228,"BSTAR":0.00071987659,"MEAN_MOTION_DOT":0.00103309,"MEAN_MOTION_DDOT":0},{"OBJECT_NAME":"STARLINK-11680 [DTC]","OBJECT_ID":"2025-075G","EPOCH":"2026-03-09T06:55:07.728096","MEAN_MOTION":15.71110053,"ECCENTRICITY":0.00019646,"INCLINATION":42.9989,"RA_OF_ASC_NODE":156.3852,"ARG_OF_PERICENTER":257.165,"MEAN_ANOMALY":102.8999,"EPHEMERIS_TYPE":0,"CLASSIFICATION_TYPE":"U","NORAD_CAT_ID":63554,"ELEMENT_SET_NO":999,"REV_AT_EPOCH":5318,"BSTAR":0.0022287241,"MEAN_MOTION_DOT":0.00299451,"MEAN_MOTION_DDOT":0}]
